SENTINEL-6              
1 46984U 20086A   24013.54823057 -.00000061  00000+0 -18865-5 0  9992
2 46984  66.0397 174.5324 0007696 269.7309  90.2825 12.80930171146890
